*******************************************************************************
Ephemeris / WWW_USER Fri Mar  7 11:18:27 2025 Pasadena, USA      / Horizons    
*******************************************************************************
Target body name: (2018 VC)                       {source: JPL#21}
Center body name: Earth (399)                     {source: DE441}
Center-site name: Mauna Kea
*******************************************************************************
Start time      : A.D. 2018-Sep-13 04:36:00.0000 UT      
Stop  time      : A.D. 2018-Sep-13 15:59:00.0000 UT      
Step-size       : 1 minutes
*******************************************************************************
Target pole/equ : undefined
Target radii    : undefined                                                    
Center geodetic : 204.5278, 19.8260847, 4.21024   {E-lon(deg),Lat(deg),Alt(km)}
Center cylindric: 204.5278, 6006.35451, 2151.0229 {E-lon(deg),Dxy(km),Dz(km)}
Center pole/equ : ITRF93                          {East-longitude positive}
Center radii    : 6378.137, 6378.137, 6356.752 km {Equator_a, b, pole_c}       
Target primary  : Sun
Vis. interferer : MOON (R_eq= 1737.400) km        {source: DE441}
Rel. light bend : Sun                             {source: DE441}
Rel. lght bnd GM: 1.3271E+11 km^3/s^2                                          
Small-body perts: Yes                             {source: SB441-N16}
Atmos refraction: NO (AIRLESS)
RA format       : HMS
Time format     : CAL 
Calendar mode   : Mixed Julian/Gregorian
RTS-only print  : NO       
EOP file        : eop.250306.p250602                                           
EOP coverage    : DATA-BASED 1962-JAN-20 TO 2025-MAR-06. PREDICTS-> 2025-JUN-01
Units conversion: 1 au= 149597870.700 km, c= 299792.458 km/s, 1 day= 86400.0 s 
Table cut-offs 1: Elevation (-90.0deg=NO ),Airmass (>38.000=NO), Daylight (YES)
Table cut-offs 2: Solar elongation (  0.0,180.0=NO ),Local Hour Angle( 0.0=NO )
Table cut-offs 3: RA/DEC angular rate (     0.0=NO )                           
*******************************************************************************
Initial IAU76/J2000 heliocentric ecliptic osculating elements (au, days, deg.):
  EPOCH=  2458962.5 ! 2020-Apr-23.00 (TDB)         Residual RMS= .087367       
   EC= .1691367762722357   QR= .9358500167919792   TP= 2458809.0997793972      
   OM= 36.58853997425776   W=  304.3228784920618   IN= 3.701146998496158       
  Equivalent ICRF heliocentric cartesian coordinates (au, au/d):
   X=-6.479543737333916E-01  Y= 9.538692942598190E-01  Z= 5.016232001756915E-01
  VX=-1.316843360643849E-02 VY=-5.467047892625660E-03 VZ=-2.149198049185293E-03
Asteroid physical parameters (km, seconds, rotational period in hours):        
   GM= n.a.                RAD= n.a.               ROTPER= n.a.                
   H= 26.34                G= .150                 B-V= n.a.                   
                           ALBEDO= n.a.            STYP= n.a.                  
*******************************************************************************
 Date__(UT)__HR:MN     R.A._________(ICRF)_________DEC
******************************************************
$$SOE
 2018-Sep-13 06:39  m  14 08 00.578243 -32 31 03.40407
 2018-Sep-13 06:40  m  14 08 00.637451 -32 31 03.99579
 2018-Sep-13 06:41  m  14 08 00.696744 -32 31 04.58744
 2018-Sep-13 06:42  m  14 08 00.756125 -32 31 05.17903
 2018-Sep-13 06:43  m  14 08 00.815591 -32 31 05.77056
 2018-Sep-13 06:44  m  14 08 00.875145 -32 31 06.36203
 2018-Sep-13 06:45  m  14 08 00.934784 -32 31 06.95345
 2018-Sep-13 06:46  m  14 08 00.994511 -32 31 07.54482
 2018-Sep-13 06:47  m  14 08 01.054323 -32 31 08.13613
 2018-Sep-13 06:48  m  14 08 01.114223 -32 31 08.72740
 2018-Sep-13 06:49  m  14 08 01.174209 -32 31 09.31862
 2018-Sep-13 06:50  m  14 08 01.234282 -32 31 09.90981
 2018-Sep-13 06:51  m  14 08 01.294441 -32 31 10.50095
 2018-Sep-13 06:52  m  14 08 01.354688 -32 31 11.09205
 2018-Sep-13 06:53  m  14 08 01.415021 -32 31 11.68313
 2018-Sep-13 06:54  m  14 08 01.475440 -32 31 12.27416
 2018-Sep-13 06:55  m  14 08 01.535947 -32 31 12.86518
 2018-Sep-13 06:56  m  14 08 01.596540 -32 31 13.45616
 2018-Sep-13 06:57  m  14 08 01.657220 -32 31 14.04712
 2018-Sep-13 06:58  m  14 08 01.717987 -32 31 14.63806
 2018-Sep-13 06:59  m  14 08 01.778841 -32 31 15.22898
 2018-Sep-13 07:00  m  14 08 01.839782 -32 31 15.81989
 2018-Sep-13 07:01  m  14 08 01.900810 -32 31 16.41078
 2018-Sep-13 07:02  m  14 08 01.961924 -32 31 17.00166
 2018-Sep-13 07:03  m  14 08 02.023125 -32 31 17.59253
 2018-Sep-13 07:04  m  14 08 02.084413 -32 31 18.18340
 2018-Sep-13 07:05  m  14 08 02.145789 -32 31 18.77426
 2018-Sep-13 07:06  m  14 08 02.207250 -32 31 19.36512
 2018-Sep-13 07:07  m  14 08 02.268799 -32 31 19.95599
 2018-Sep-13 07:08  m  14 08 02.330435 -32 31 20.54686
 2018-Sep-13 07:09  m  14 08 02.392158 -32 31 21.13774
 2018-Sep-13 07:10  m  14 08 02.453967 -32 31 21.72863
 2018-Sep-13 07:11  m  14 08 02.515863 -32 31 22.31953
 2018-Sep-13 07:12  m  14 08 02.577847 -32 31 22.91045
 2018-Sep-13 07:13  m  14 08 02.639917 -32 31 23.50138
 2018-Sep-13 07:14  m  14 08 02.702073 -32 31 24.09234
 2018-Sep-13 07:15     14 08 02.764317 -32 31 24.68331
 2018-Sep-13 07:16     14 08 02.826647 -32 31 25.27432
 2018-Sep-13 07:17     14 08 02.889065 -32 31 25.86535
 2018-Sep-13 07:18     14 08 02.951568 -32 31 26.45641
 2018-Sep-13 07:19     14 08 03.014159 -32 31 27.04751
 2018-Sep-13 07:20     14 08 03.076837 -32 31 27.63864
 2018-Sep-13 07:21     14 08 03.139601 -32 31 28.22981
 2018-Sep-13 07:22     14 08 03.202451 -32 31 28.82103
 2018-Sep-13 07:23     14 08 03.265389 -32 31 29.41228
 2018-Sep-13 07:24     14 08 03.328413 -32 31 30.00359
 2018-Sep-13 07:25     14 08 03.391523 -32 31 30.59494
 2018-Sep-13 07:26     14 08 03.454720 -32 31 31.18634
 2018-Sep-13 07:27     14 08 03.518004 -32 31 31.77780
 2018-Sep-13 07:28     14 08 03.581374 -32 31 32.36932
 2018-Sep-13 07:29     14 08 03.644830 -32 31 32.96089
 2018-Sep-13 07:30     14 08 03.708373 -32 31 33.55253
 2018-Sep-13 07:31     14 08 03.772002 -32 31 34.14423
 2018-Sep-13 07:32     14 08 03.835718 -32 31 34.73600
 2018-Sep-13 07:33     14 08 03.899519 -32 31 35.32784
 2018-Sep-13 07:34     14 08 03.963407 -32 31 35.91975
 2018-Sep-13 07:35     14 08 04.027382 -32 31 36.51174
 2018-Sep-13 07:36     14 08 04.091442 -32 31 37.10380
 2018-Sep-13 07:37     14 08 04.155588 -32 31 37.69595
 2018-Sep-13 07:38     14 08 04.219820 -32 31 38.28817
 2018-Sep-13 07:39     14 08 04.284139 -32 31 38.88049
 2018-Sep-13 07:40     14 08 04.348543 -32 31 39.47289
 2018-Sep-13 07:41     14 08 04.413033 -32 31 40.06538
 2018-Sep-13 07:42     14 08 04.477608 -32 31 40.65796
 2018-Sep-13 07:43     14 08 04.542270 -32 31 41.25064
 2018-Sep-13 07:44     14 08 04.607017 -32 31 41.84342
 2018-Sep-13 07:45     14 08 04.671850 -32 31 42.43630
 2018-Sep-13 07:46     14 08 04.736768 -32 31 43.02928
 2018-Sep-13 07:47     14 08 04.801772 -32 31 43.62237
 2018-Sep-13 07:48     14 08 04.866861 -32 31 44.21557
 2018-Sep-13 07:49     14 08 04.932035 -32 31 44.80888
 2018-Sep-13 07:50     14 08 04.997295 -32 31 45.40230
 2018-Sep-13 07:51     14 08 05.062640 -32 31 45.99584
 2018-Sep-13 07:52     14 08 05.128069 -32 31 46.58950
 2018-Sep-13 07:53     14 08 05.193584 -32 31 47.18328
 2018-Sep-13 07:54     14 08 05.259184 -32 31 47.77718
 2018-Sep-13 07:55     14 08 05.324869 -32 31 48.37121
 2018-Sep-13 07:56     14 08 05.390638 -32 31 48.96537
 2018-Sep-13 07:57     14 08 05.456492 -32 31 49.55966
 2018-Sep-13 07:58     14 08 05.522431 -32 31 50.15408
 2018-Sep-13 07:59     14 08 05.588454 -32 31 50.74864
 2018-Sep-13 08:00     14 08 05.654562 -32 31 51.34334
 2018-Sep-13 08:01     14 08 05.720754 -32 31 51.93818
 2018-Sep-13 08:02     14 08 05.787030 -32 31 52.53317
 2018-Sep-13 08:03     14 08 05.853391 -32 31 53.12830
 2018-Sep-13 08:04     14 08 05.919835 -32 31 53.72358
 2018-Sep-13 08:05     14 08 05.986364 -32 31 54.31901
 2018-Sep-13 08:06     14 08 06.052976 -32 31 54.91460
 2018-Sep-13 08:07     14 08 06.119672 -32 31 55.51035
 2018-Sep-13 08:08     14 08 06.186451 -32 31 56.10625
 2018-Sep-13 08:09     14 08 06.253315 -32 31 56.70232
 2018-Sep-13 08:10     14 08 06.320261 -32 31 57.29855
 2018-Sep-13 08:11     14 08 06.387291 -32 31 57.89495
 2018-Sep-13 08:12     14 08 06.454404 -32 31 58.49151
 2018-Sep-13 08:13     14 08 06.521601 -32 31 59.08825
 2018-Sep-13 08:14     14 08 06.588880 -32 31 59.68516
 2018-Sep-13 08:15     14 08 06.656242 -32 32 00.28225
 2018-Sep-13 08:16     14 08 06.723687 -32 32 00.87952
 2018-Sep-13 08:17     14 08 06.791215 -32 32 01.47697
 2018-Sep-13 08:18     14 08 06.858825 -32 32 02.07461
 2018-Sep-13 08:19     14 08 06.926518 -32 32 02.67243
 2018-Sep-13 08:20     14 08 06.994292 -32 32 03.27044
 2018-Sep-13 08:21     14 08 07.062150 -32 32 03.86865
 2018-Sep-13 08:22     14 08 07.130089 -32 32 04.46704
 2018-Sep-13 08:23     14 08 07.198110 -32 32 05.06564
 2018-Sep-13 08:24     14 08 07.266213 -32 32 05.66443
 2018-Sep-13 08:25     14 08 07.334397 -32 32 06.26343
 2018-Sep-13 08:26     14 08 07.402663 -32 32 06.86263
 2018-Sep-13 08:27     14 08 07.471010 -32 32 07.46203
 2018-Sep-13 08:28     14 08 07.539439 -32 32 08.06165
 2018-Sep-13 08:29     14 08 07.607949 -32 32 08.66147
 2018-Sep-13 08:30     14 08 07.676540 -32 32 09.26151
 2018-Sep-13 08:31     14 08 07.745212 -32 32 09.86177
 2018-Sep-13 08:32     14 08 07.813964 -32 32 10.46225
 2018-Sep-13 08:33     14 08 07.882797 -32 32 11.06294
 2018-Sep-13 08:34     14 08 07.951710 -32 32 11.66386
 2018-Sep-13 08:35     14 08 08.020704 -32 32 12.26501
 2018-Sep-13 08:36     14 08 08.089778 -32 32 12.86638
 2018-Sep-13 08:37     14 08 08.158932 -32 32 13.46799
 2018-Sep-13 08:38     14 08 08.228165 -32 32 14.06983
 2018-Sep-13 08:39     14 08 08.297479 -32 32 14.67190
 2018-Sep-13 08:40     14 08 08.366872 -32 32 15.27421
 2018-Sep-13 08:41     14 08 08.436344 -32 32 15.87676
